#cP2010  1  6  0  0  0.00000000      96 ORBIT IGS05 HLM  IGS
## 1565 259200.00000000   900.00000000 55202 0.0000000000000
+   32   G01G02G03G04G05G06G07G08G09G10G11G12G13G14G15G16G17
+        G18G19G20G21G22G23G24G25G26G27G28G29G30G31G32  0  0
+          0  0  0  0  0  0  0  0  0  0  0  0  0  0  0  0  0
+          0  0  0  0  0  0  0  0  0  0  0  0  0  0  0  0  0
+          0  0  0  0  0  0  0  0  0  0  0  0  0  0  0  0  0
++         3  2  2  2  2  2  2  2  2  2  2  2  2  2  2  2  3
++         2  2  2  2  2  2  2  3  2  2  2  3  3  2  2  0  0
++         0  0  0  0  0  0  0  0  0  0  0  0  0  0  0  0  0
++         0  0  0  0  0  0  0  0  0  0  0  0  0  0  0  0  0
++         0  0  0  0  0  0  0  0  0  0  0  0  0  0  0  0  0
%c G  cc GPS ccc cccc cccc cccc cccc ccccc ccccc ccccc ccccc
%c cc cc ccc ccc cccc cccc cccc cccc ccccc ccccc ccccc ccccc
%f  1.2500000  1.025000000  0.00000000000  0.000000000000000
%f  0.0000000  0.000000000  0.00000000000  0.000000000000000
%i    0    0    0    0      0      0      0      0         0
%i    0    0    0    0      0      0      0      0         0
/* FINAL ORBIT COMBINATION FROM WEIGHTED AVERAGE OF:        
/* cod emr esa gfz grg jpl mit ngs sio                      
/* REFERENCED TO IGS TIME (IGST) AND TO WEIGHTED MEAN POLE: 
/* PCV:IGS05_1563 OL/AL:FES2004  NONE     Y  ORB:CMB CLK:CMB
*  2010  1  6 16 30  0.00000000
PG01 -15221.378651    982.226331  21635.468514 999999.999999
PG02  -8004.438825 -19919.670472  15851.427347    212.427483  6  8  8 142       
PG03   2704.563335  16580.270370 -20866.265845    498.242861  6  4  6 125       
PG04   6095.907964 -14674.423519  21078.121569   -444.170167  4  6  6 116       
PG05  -3033.319968 -25059.845214  -8137.792602    -19.547388  7  8  5  99       
PG06  -2239.472258  17407.518441 -19727.088136    261.552929  5  5  4 119       
PG07  21793.443353   3372.194823 -14923.554500      4.764587  5  6  4 115       
PG08  14331.435980  -6362.122584 -21548.623244      1.867072  5  3  7 130       
PG09 -20758.450645 -16481.781699  -2664.830924     98.426570  5  5  6 128       
PG10   1136.520868 -26152.722365  -3333.649529    -32.110259  6  6  3 120       
PG11  24372.459892  11037.845356   -581.632589    -38.274743  8  5  6  96       
PG12 -11993.995627 -13374.110880  19665.331196   -166.579404  3  5  4 132       
PG13  25346.176279  -5044.898456   6031.074864    306.665330  4  3  6 122       
PG14 -19768.001513  14689.593503   9922.150423     -3.115849  5  8  5  77       
PG15 -10511.085986 -11791.211558 -21337.960511   -314.808610  4  7  6 122       
PG16  -2619.766288  26250.651358  -1392.620779    -27.632596  4  9  4 132       
PG17  18555.605908 -15686.875811  10557.403832    118.754106  6  8  6 147       
PG18 -15615.715156   7542.912317 -19764.390311     40.007954  4  5  4 126       
PG19  11767.803103  11453.543984 -20893.647387     -8.074091  5  5  7 132       
PG20  14349.580888   8600.960322  20508.634301     63.900001  5  3    120       
PG21 -20187.211715    745.137052 -17250.081122    -32.290576  5  4  5 132       
PG22 -12177.171522  19796.190029 -12625.715708    182.235631  4  5  6 126       
PG23  21248.332580   2719.318013  15869.706043    382.923666  6  5  6 137       
PG24 -22482.946163 -12043.572278  -6832.364589    251.536426  5  5  5 102       
PG25  23752.328834   7358.370231  -8706.530529     73.179343  5  9  8 163       
PG26 -25007.500746   9609.554442    616.886731     -7.589062  7  8  4 104       
PG27 -20336.575274 -16502.187008  -3979.604102    114.849526  5  4  7 126       
PG28  12681.963555 -17636.880745 -14607.350497    -23.942654  6  7  8 120       
PG29 -24521.695053   2413.685075   9947.742715     87.962690  5  8  7 132       
PG30 -15115.655275  -1229.950200  21419.912996    208.240853  5  8 10 140       
PG31  -3222.374321  15644.653681  21409.878233    -56.302370  5  9  7 122       
PG32   9081.570240  18029.344378  17783.864482    122.543177  3  7  8 114       
*  2010  1  6 16 45  0.00000000
PG01 -15053.801125  -1514.686113  21730.998725 999999.999999
PG02  -6313.110924 -19005.648119  17593.434719    212.431441  6  8  8 148       
PG03    710.048980  17709.948103 -20040.644300    498.248140  6  3  5 122       
PG04   8152.855719 -13304.487582  21322.102597   -444.187296  4  6  5 113       
PG05  -2726.433739 -25814.878889  -5420.951033    -19.542513  7  9  5  97       
PG06  -4277.241082  18335.396009 -18513.926173    261.551447  5  5  4 111       
PG07  22993.087884   4402.387301 -12701.314281      4.764054  5  6  4 121       
PG08  16189.945321  -4856.954956 -20649.387025      1.867777  5  4  7 128       
PG09 -20325.005637 -16431.512935  -5504.164714     98.428075  5  5  6 136       
PG10   1451.902863 -26323.692375   -478.967801    -32.111037  6  6  2 113       
PG11  24036.162992  11362.215547  -3254.092943    -38.276670  8  5  6 116       
PG12 -11702.885921 -15508.017284  18228.569647   -166.574423  3  5  4 127       
PG13  24604.643529  -4583.158255   8783.070876    306.665569  4  4  6 124       
PG14 -20722.646987  14910.056148   7235.102154     -3.111987  5  8  5  82       
PG15  -8315.310875 -12913.992448 -21644.984975   -314.806605  5  8  6 123       
PG16  -2864.792058  26224.444186   1498.437772    -27.636298  4  9  4 114       
PG17  19618.800399 -15898.361230   7965.292199    118.757078  7  8  7 145       
PG18 -15487.283690   5165.549576 -20633.823065     40.010326  4  5  4 124       
PG19   9519.389833  12373.206226 -21479.724691     -8.076111  5  5  7 140       
PG20  14128.022399  10917.019139  19549.241012     63.899463  5  2    124       
PG21 -21638.376768   -510.554541 -15494.546686    -32.292724  5  4  5 128       
PG22 -12258.936338  18177.655597 -14777.178883    182.234743  4  5  6 130       
PG23  19573.535111   3652.694431  17699.574684    382.922898  6  6  6 140       
PG24 -22811.542277 -12670.452316  -4078.517753    251.539650  5  5  6 103       
PG25  24413.650438   7991.907791  -5986.573174     73.186952  5  9  8 168       
PG26 -25025.649757   9475.735868  -2269.542703     -7.591269  7  8  4 108       
PG27 -19636.271584 -16319.038550  -6773.837643    114.852864  5  4  7 131       
PG28  12664.295775 -15755.772035 -16604.049774    -23.942230  7  7  8 133       
PG29 -23452.202995   1697.400522  12398.643477     87.965167  4  7  6 122       
PG30 -15009.748239  -3751.314961  21209.112363    208.244815  6  8 10 150       
PG31  -5252.972695  14303.553413  21958.291131    -56.301415  5  9  7 124       
PG32   8645.625744  19840.536380  15968.708726    122.536109  2  7  8 106       
*  2010  1  6 17  0  0.00000000
PG01 -15017.057938  -4005.217863  21449.181411 999999.999999
PG02  -4420.799008 -18085.014797  19035.950002    212.435623  5  8  8 142       
PG03  -1142.848267  18870.117822 -18877.602317    498.252364  5  4  5 130       
PG04  10275.795879 -12033.669197  21193.420983   -444.204462  4  7  4 109       
PG05  -2463.704490 -26271.449494  -2610.370483    -19.538691  6  9  5 106       
PG06  -6135.569045  19276.744106 -16976.557077    261.549495  5  5  4 119       
PG07  24020.845282   5229.902756 -10262.293651      4.763796  5  6  4 102       
PG08  18029.030708  -3533.166428 -19399.779391      1.868659  5  5  7 129       
PG09 -19619.201996 -16248.387721  -8250.400014     98.429227  6  4  6 134       
PG10   1745.869617 -26184.355539   2384.119489    -32.111531  6  6  3 119       
PG11  23436.713049  11606.051471  -5871.955105    -38.278655  7  6  6 124       
PG12 -11531.789550 -17474.246416  16480.958907   -166.569930  4  6  5 128       
PG13  23615.343263  -3948.089561  11383.276351    306.665419  4  4  6 124       
PG14 -21385.059068  15043.270001   4423.184104     -3.107769  5  8  5  88       
PG15  -6167.101130 -14154.867847 -21578.764436   -314.805008  5  8  7 118       
PG16  -3096.144967  25883.380424   4363.309876    -27.640579  3  9  4 119       
PG17  20403.074043 -16023.161513   5234.827682    118.760197  6  9  7 148       
PG18 -15468.737705   2709.192036 -21138.079673     40.013126  4  5  4 124       
PG19   7277.592761  13427.878855 -21695.928954     -8.078167  6  6  7 138       
PG20  14017.979663  13111.958218  18250.223449     63.898708  5  3    116       
PG21 -22964.906987  -1577.189014 -13474.081738    -32.294961  4  4  5 119       
PG22 -12406.810765  16334.931553 -16670.855025    182.233927  3  4  5 136       
PG23  17783.360160   4767.137105  19227.606343    382.922348  5  6  5 143       
PG24 -22908.040668 -13101.847757  -1253.273475    251.542396  5  5  6 116       
PG25  24822.154040   8448.929980  -3161.389464     73.194966  5  8  7 164       
PG26 -24760.617862   9208.448471  -5118.230248     -7.593759  7  8  4 105       
PG27 -18645.588305 -16031.352622  -9449.496228    114.855564  6  3  7 135       
PG28  12734.007231 -13661.779162 -18301.716429    -23.941438  7  7  8 125       
PG29 -22186.175060    805.737490  14636.696110     87.967730  4  6  6 119       
PG30 -15029.115780  -6227.596027  20620.425612    208.247800  6  8  9 151       
PG31  -7387.513673  13055.898886  22135.906216    -56.300120  4  9  6 128       
PG32   8328.714305  21457.321475  13888.891012    122.528864  2  6  9 100       
EOF
